[{"OBJECT_NAME":"STARLINK-30610","OBJECT_ID":"2023-160H","EPOCH":"2026-03-09T08:25:37.409952","MEAN_MOTION":15.2673357,"ECCENTRICITY":0.0001438,"INCLINATION":43.0023,"RA_OF_ASC_NODE":79.8267,"ARG_OF_PERICENTER":246.9548,"MEAN_ANOMALY":113.1152,"EPHEMERIS_TYPE":0,"CLASSIFICATION_TYPE":"U","NORAD_CAT_ID":58082,"ELEMENT_SET_NO":999,"REV_AT_EPOCH":13289,"BSTAR":-7.0759291e-5,"MEAN_MOTION_DOT":-2.157e-5,"MEAN_MOTION_DDOT":0},{"OBJECT_NAME":"NUSAT-45 (UZMASAT-1)","OBJECT_ID":"2025-009AH","EPOCH":"2026-03-09T03:44:32.024544","MEAN_MOTION":15.26632732,"ECCENTRICITY":0.00011721,"INCLINATION":97.3985,"RA_OF_ASC_NODE":150.3373,"ARG_OF_PERICENTER":1.4631,"MEAN_ANOMALY":358.6611,"EPHEMERIS_TYPE":0,"CLASSIFICATION_TYPE":"U","NORAD_CAT_ID":62640,"ELEMENT_SET_NO":999,"REV_AT_EPOCH":6363,"BSTAR":0.00048087023,"MEAN_MOTION_DOT":0.00012539,"MEAN_MOTION_DDOT":0}]
